IRIDIUM 7               
1 24793U 97020B   24258.81160431  .00001271  00000+0  43597-3 0  9999
2 24793  86.3920 292.2932 0002034  87.8905 272.2524 14.35421228432386
IRIDIUM 5               
1 24795U 97020D   24258.89905959  .00015428  00000+0  14138-2 0  9998
2 24795  86.3943 210.1071 0121014  44.6525 316.4369 14.89313862444413
IRIDIUM 4               
1 24796U 97020E   24258.83030351  .00001221  00000+0  41100-3 0  9994
2 24796  86.3911 289.3411 0002274  88.4767 271.6691 14.36346847432930
IRIDIUM 914             
1 24836U 97030A   24258.82838066  .00001474  00000+0  45995-3 0  9994
2 24836  86.3906 298.7722 0003718  73.5953 286.5655 14.40243056567481
IRIDIUM 16              
1 24841U 97030F   24258.93563485  .00001544  00000+0  50301-3 0  9997
2 24841  86.4050 320.9461 0000909 170.4507 189.6708 14.38141818427439
IRIDIUM 911             
1 24842U 97030G   24258.87822237  .00002101  00000+0  57399-3 0  9998
2 24842  86.4478 320.0160 0012194 299.5824  60.4163 14.46856368435268
IRIDIUM 17              
1 24870U 97034B   24258.75252369  .00002207  00000+0  73482-3 0  9991
2 24870  86.4020 350.5837 0002419 135.9421 224.1970 14.37246905424012
IRIDIUM 920             
1 24871U 97034C   24258.73873166  .00001754  00000+0  54025-3 0  9992
2 24871  86.4010 330.4684 0009376 270.3939  89.6186 14.40948708426903
